NORAD_CAT_ID,OBJECT_NAME,OBJECT_TYPE,EPOCH,MEAN_MOTION,ECCENTRICITY,INCLINATION,RA_OF_ASC_NODE,ARG_OF_PERICENTER,MEAN_ANOMALY,BSTAR,MEAN_MOTION_DOT,MEAN_MOTION_DDOT,TLE_LINE0,TLE_LINE1,TLE_LINE2,SEMIMAJOR_AXIS,PERIOD,APOGEE,PERIGEE,DECAYED
52487.0,STARLINK-3902,PAYLOAD,2023-04-13 13:19:28,15.08841616,0.0001462,53.2179,132.8456,84.8146,275.3013,1.9608e-05,2.4e-07,0.0,0 STARLINK-3902,1 52487U 22049AN  23103.55519023  .00000024  00000-0  19608-4 0  9996,2 52487  53.2179 132.8456 0001462  84.8146 275.3013 15.08841616 52354,6917.875,95.437,540.752,538.729,0.0
52487.0,STARLINK-3902,PAYLOAD,2023-04-14 11:34:51,15.08845285,0.0001211,53.2166,128.682,92.7179,267.3952,0.00013081,1.795e-05,0.0,0 STARLINK-3902,1 52487U 22049AN  23104.48254446  .00001795  00000-0  13081-3 0  9998,2 52487  53.2166 128.6820 0001211  92.7179 267.3952 15.08845285 53578,6917.864,95.437,540.567,538.891,0.0
52487.0,STARLINK-3902,PAYLOAD,2023-04-15 00:17:57,15.08835036,0.0001543,53.217,126.3006,107.6259,252.4902,8.141e-05,1.008e-05,0.0,0 STARLINK-3902,1 52487U 22049AN  23105.01247321  .00001008  00000-0  81410-4 0  9991,2 52487  53.2170 126.3006 0001543 107.6259 252.4902 15.08835036 52579,6917.896,95.438,540.828,538.693,0.0
52487.0,STARLINK-3902,PAYLOAD,2023-04-15 08:14:53,15.08840668,0.0001389,53.2169,124.8148,111.9157,248.1983,3.9346e-05,3.38e-06,0.0,0 STARLINK-3902,1 52487U 22049AN  23105.34367102  .00000338  00000-0  39346-4 0  9993,2 52487  53.2169 124.8148 0001389 111.9157 248.1983 15.08840668 53704,6917.878,95.438,540.704,538.782,0.0
52487.0,STARLINK-3902,PAYLOAD,2023-04-15 17:47:12,15.08838275,0.0001323,53.2167,123.032,101.9012,258.2128,1.9325e-05,2e-07,0.0,0 STARLINK-3902,1 52487U 22049AN  23105.74111395  .00000020  00000-0  19325-4 0  9991,2 52487  53.2167 123.0320 0001323 101.9012 258.2128 15.08838275 53762,6917.886,95.438,540.666,538.835,0.0
52487.0,STARLINK-3902,PAYLOAD,2023-04-16 04:54:54,15.08839392,0.0001369,53.2173,120.9505,102.7285,257.386,-3.3712e-05,-8.24e-06,0.0,0 STARLINK-3902,1 52487U 22049AN  23106.20479604 -.00000824  00000-0 -33712-4 0  9993,2 52487  53.2173 120.9505 0001369 102.7285 257.3860 15.08839392 52753,6917.882,95.438,540.694,538.8,0.0
52487.0,STARLINK-3902,PAYLOAD,2023-04-16 06:30:17,15.0884014,0.0001349,53.2175,120.6533,102.4787,257.6356,-3.0512e-05,-7.73e-06,0.0,0 STARLINK-3902,1 52487U 22049AN  23106.27103548 -.00000773  00000-0 -30512-4 0  9999,2 52487  53.2175 120.6533 0001349 102.4787 257.6356 15.08840140 53842,6917.88,95.438,540.678,538.812,0.0
52487.0,STARLINK-3902,PAYLOAD,2023-04-16 17:37:59,15.08834272,0.0001468,53.2178,118.5724,110.86,249.2549,9.9613e-05,1.298e-05,0.0,0 STARLINK-3902,1 52487U 22049AN  23106.73471647  .00001298  00000-0  99613-4 0  9996,2 52487  53.2178 118.5724 0001468 110.8600 249.2549 15.08834272 53910,6917.898,95.438,540.778,538.747,0.0
52487.0,STARLINK-3902,PAYLOAD,2023-04-17 09:31:50,15.0883676,0.0001433,53.2183,115.5987,103.6139,256.5013,5.1986e-05,5.39e-06,0.0,0 STARLINK-3902,1 52487U 22049AN  23107.39711789  .00000539  00000-0  51986-4 0  9991,2 52487  53.2183 115.5987 0001433 103.6139 256.5013 15.08836760 52935,6917.89,95.438,540.747,538.764,0.0
52487.0,STARLINK-3902,PAYLOAD,2023-04-17 17:28:46,15.08838103,0.0001411,53.2187,114.112,96.2902,263.8251,7.791e-05,9.52e-06,0.0,0 STARLINK-3902,1 52487U 22049AN  23107.72831733  .00000952  00000-0  77910-4 0  9994,2 52487  53.2187 114.1120 0001411  96.2902 263.8251 15.08838103 54068,6917.886,95.438,540.727,538.775,0.0
52487.0,STARLINK-3902,PAYLOAD,2023-04-18 09:22:38,15.08839856,0.0001361,53.218,111.1378,93.8398,266.275,8.4026e-05,1.05e-05,0.0,0 STARLINK-3902,1 52487U 22049AN  23108.39071766  .00001050  00000-0  84026-4 0  9996,2 52487  53.2180 111.1378 0001361  93.8398 266.2750 15.08839856 54167,6917.881,95.438,540.687,538.804,0.0
52487.0,STARLINK-3902,PAYLOAD,2023-04-19 04:27:16,15.08834593,0.0001377,53.2181,107.5694,93.4099,266.7051,5.2255e-05,5.44e-06,0.0,0 STARLINK-3902,1 52487U 22049AN  23109.18560451  .00000544  00000-0  52255-4 0  9994,2 52487  53.2181 107.5694 0001377  93.4099 266.7051 15.08834593 53205,6917.897,95.438,540.715,538.809,0.0
52487.0,STARLINK-3902,PAYLOAD,2023-04-19 12:24:11,15.08840763,0.0001342,53.2181,106.0826,92.4982,267.6163,6.1933e-05,6.98e-06,0.0,0 STARLINK-3902,1 52487U 22049AN  23109.51680057  .00000698  00000-0  61933-4 0  9999,2 52487  53.2181 106.0826 0001342  92.4982 267.6163 15.08840763 54333,6917.878,95.438,540.671,538.815,0.0
52487.0,STARLINK-3902,PAYLOAD,2023-04-19 17:10:21,15.0883982,0.0001372,53.2182,105.1906,91.0165,269.0985,5.0288e-05,5.13e-06,0.0,0 STARLINK-3902,1 52487U 22049AN  23109.71552175  .00000513  00000-0  50288-4 0  9997,2 52487  53.2182 105.1906 0001372  91.0165 269.0985 15.08839820 54367,6917.881,95.438,540.695,538.797,0.0
52487.0,STARLINK-3902,PAYLOAD,2023-04-20 05:53:25,15.08840775,0.0001283,53.218,102.8116,91.7695,268.3444,0.00019933,2.886e-05,0.0,0 STARLINK-3902,1 52487U 22049AN  23110.24543666  .00002886  00000-0  19933-3 0  9998,2 52487  53.2180 102.8116 0001283  91.7695 268.3444 15.08840775 53360,6917.878,95.438,540.631,538.855,0.0
52487.0,STARLINK-3902,PAYLOAD,2023-04-20 10:39:34,15.088506,0.0001255,53.2178,101.9192,93.7003,266.4133,0.00012531,1.708e-05,0.0,0 STARLINK-3902,1 52487U 22049AN  23110.44415078  .00001708  00000-0  12531-3 0  9994,2 52487  53.2178 101.9192 0001255  93.7003 266.4133 15.08850600 54470,6917.848,95.437,540.581,538.845,0.0
52487.0,STARLINK-3902,PAYLOAD,2023-04-20 17:01:07,15.08849619,0.0001234,53.2181,100.7297,93.5223,266.591,0.00016104,2.277e-05,0.0,0 STARLINK-3902,1 52487U 22049AN  23110.70910928  .00002277  00000-0  16104-3 0  9999,2 52487  53.2181 100.7297 0001234  93.5223 266.5910 15.08849619 53433,6917.851,95.437,540.57,538.862,0.0
52487.0,STARLINK-3902,PAYLOAD,2023-04-21 10:30:23,15.08834928,0.0001214,53.2177,97.4583,99.9498,260.1631,1.7004e-05,-1.7e-07,0.0,0 STARLINK-3902,1 52487U 22049AN  23111.43776715 -.00000017  00000-0  17004-4 0  9996,2 52487  53.2177  97.4583 0001214  99.9498 260.1631 15.08834928 53549,6917.896,95.438,540.601,538.921,0.0
52487.0,STARLINK-3902,PAYLOAD,2023-04-22 05:34:59,15.0885199,0.0001189,53.2169,93.8918,85.9745,274.1383,0.00011679,1.572e-05,0.0,0 STARLINK-3902,1 52487U 22049AN  23112.23263401  .00001572  00000-0  11679-3 0  9995,2 52487  53.2169  93.8918 0001189  85.9745 274.1383 15.08851990 53663,6917.844,95.437,540.531,538.886,0.0
52487.0,STARLINK-3902,PAYLOAD,2023-04-22 15:07:18,15.08845244,0.0001149,53.2169,92.1039,84.6594,275.4529,3.8505e-05,3.25e-06,0.0,0 STARLINK-3902,1 52487U 22049AN  23112.63007785  .00000325  00000-0  38505-4 0  9993,2 52487  53.2169  92.1039 0001149  84.6594 275.4529 15.08845244 53721,6917.864,95.437,540.524,538.934,0.0
52487.0,STARLINK-3902,PAYLOAD,2023-04-23 10:11:57,15.08836126,8.92e-05,53.2176,88.539,91.6021,268.5074,5.2158e-05,5.42e-06,0.0,0 STARLINK-3902,1 52487U 22049AN  23113.42496749  .00000542  00000-0  52158-4 0  9994,2 52487  53.2176  88.5390 0000892  91.6021 268.5074 15.08836126 53845,6917.892,95.438,540.374,539.14,0.0
52487.0,STARLINK-3902,PAYLOAD,2023-04-24 05:16:33,15.08863062,0.0001088,53.2179,84.9715,97.1743,262.9373,0.00013837,1.916e-05,0.0,0 STARLINK-3902,1 52487U 22049AN  23114.21982880  .00001916  00000-0  13837-3 0  9994,2 52487  53.2179  84.9715 0001088  97.1743 262.9373 15.08863062 53961,6917.81,95.436,540.428,538.922,0.0
52487.0,STARLINK-3902,PAYLOAD,2023-04-24 08:27:18,15.08878001,9.5e-05,53.2169,84.3753,93.6379,266.4722,0.00046939,7.198e-05,0.0,0 STARLINK-3902,1 52487U 22049AN  23114.35230113  .00007198  00000-0  46939-3 0  9991,2 52487  53.2169  84.3753 0000950  93.6379 266.4722 15.08878001 53987,6917.764,95.435,540.286,538.972,0.0
52487.0,STARLINK-3902,PAYLOAD,2023-04-25 09:53:29,15.08854969,0.000119,53.2178,79.6165,102.2471,257.8655,0.00016404,2.325e-05,0.0,0 STARLINK-3902,1 52487U 22049AN  23115.41214696  .00002325  00000-0  16404-3 0  9998,2 52487  53.2178  79.6165 0001190 102.2471 257.8655 15.08854969 55223,6917.835,95.437,540.523,538.876,0.0
52487.0,STARLINK-3902,PAYLOAD,2023-04-26 09:44:19,15.08815406,0.0001299,53.2185,75.1575,98.4456,261.6684,-0.00039675,-6.592e-05,0.0,0 STARLINK-3902,1 52487U 22049AN  23116.40577898 -.00006592  00000-0 -39675-3 0  9991,2 52487  53.2185  75.1575 0001299  98.4456 261.6684 15.08815406 55370,6917.956,95.439,540.719,538.922,0.0
52487.0,STARLINK-3902,PAYLOAD,2023-04-27 03:13:34,15.08826728,0.000111,53.2176,71.8921,84.2858,275.8261,7.5319e-05,9.11e-06,0.0,0 STARLINK-3902,1 52487U 22049AN  23117.13442505  .00000911  00000-0  75319-4 0  9991,2 52487  53.2176  71.8921 0001110  84.2858 275.8261 15.08826728 54409,6917.921,95.438,540.554,539.018,0.0
52487.0,STARLINK-3902,PAYLOAD,2023-04-27 20:42:48,15.0884527,0.0001209,53.218,68.6165,99.5684,260.5445,0.00075374,0.0001173,0.0,0 STARLINK-3902,1 52487U 22049AN  23117.86306299  .00011730  00000-0  75374-3 0  9991,2 52487  53.2180  68.6165 0001209  99.5684 260.5445 15.08845270 54513,6917.864,95.437,540.566,538.893,0.0
52487.0,STARLINK-3902,PAYLOAD,2023-04-28 06:15:06,15.088883,0.0001183,53.2169,66.8331,98.012,262.1007,0.0013052,0.00020573,0.0,0 STARLINK-3902,1 52487U 22049AN  23118.26049072  .00020573  00000-0  13052-2 0  9998,2 52487  53.2169  66.8331 0001183  98.0120 262.1007 15.08888300 54574,6917.733,95.434,540.416,538.779,0.0
52487.0,STARLINK-3902,PAYLOAD,2023-04-28 14:12:02,15.08864637,0.0001641,53.2172,65.3466,80.497,279.6208,0.00036968,5.604e-05,0.0,0 STARLINK-3902,1 52487U 22049AN  23118.59169322  .00005604  00000-0  36968-3 0  9995,2 52487  53.2172  65.3466 0001641  80.4970 279.6208 15.08864637 54627,6917.805,95.436,540.805,538.535,0.0
52487.0,STARLINK-3902,PAYLOAD,2023-04-29 02:55:07,15.08846764,0.000109,53.2173,62.9671,89.1794,270.9323,0.0011,0.00017265,0.0,0 STARLINK-3902,1 52487U 22049AN  23119.12161189  .00017265  00000-0  11000-2 0  9993,2 52487  53.2173  62.9671 0001090  89.1794 270.9323 15.08846764 54709,6917.86,95.437,540.479,538.971,0.0
